[{"OBJECT_NAME":"STARLINK-4753","OBJECT_ID":"2022-114AD","EPOCH":"2026-03-09T21:40:04.933632","MEAN_MOTION":15.08835282,"ECCENTRICITY":0.0001585,"INCLINATION":53.2183,"RA_OF_ASC_NODE":293.1946,"ARG_OF_PERICENTER":96.8824,"MEAN_ANOMALY":263.2348,"EPHEMERIS_TYPE":0,"CLASSIFICATION_TYPE":"U","NORAD_CAT_ID":53845,"ELEMENT_SET_NO":999,"REV_AT_EPOCH":19300,"BSTAR":-2.6881632e-5,"MEAN_MOTION_DOT":-7.16e-6,"MEAN_MOTION_DDOT":0},{"OBJECT_NAME":"PSLV DEB","OBJECT_ID":"2001-049AH","EPOCH":"2026-03-09T23:39:21.767904","MEAN_MOTION":14.98984537,"ECCENTRICITY":0.00513683,"INCLINATION":98.1237,"RA_OF_ASC_NODE":87.2704,"ARG_OF_PERICENTER":48.4953,"MEAN_ANOMALY":9.0267,"EPHEMERIS_TYPE":0,"CLASSIFICATION_TYPE":"U","NORAD_CAT_ID":27089,"ELEMENT_SET_NO":999,"REV_AT_EPOCH":31452,"BSTAR":0.000212521,"MEAN_MOTION_DOT":2.577e-5,"MEAN_MOTION_DDOT":0}]
